{
  "type": "FeatureCollection",
  "features": [
    {
      "type": "Feature",
      "geometry": {
        "coordinates": [
          [
            [
              4.101969,
              7.142321
            ],
            [
              4.410469,
              5.629361
            ],
            [
              6.651707,
              6.091321
            ],
            [
              6.350826,
              7.600121
            ],
            [
              4.101969,
              7.142321
            ]
          ]
        ],
        "type": "Polygon"
      },
      "properties": {
        "centerLat": 6.6169,
        "centerLon": 5.3778,
        "stopTime": "2024-07-15T17:54:22Z",
        "fileID": "S1A_IW_GRDH_1SDV_20240715T175357_20240715T175422_054775_06AB70_96EB-GRD_HD",
        "flightDirection": "ASCENDING",
        "pathNumber": 103,
        "processingLevel": "GRD_HD",
        "url": "https://datapool.asf.alaska.edu/GRD_HD/SA/S1A_IW_GRDH_1SDV_20240715T175357_20240715T175422_054775_06AB70_96EB.zip",
        "startTime": "2024-07-15T17:53:57Z",
        "sceneName": "S1A_IW_GRDH_1SDV_20240715T175357_20240715T175422_054775_06AB70_96EB",
        "browse": [
          "https://datapool.asf.alaska.edu/BROWSE/SA/S1A_IW_GRDH_1SDV_20240715T175357_20240715T175422_054775_06AB70_96EB.jpg"
        ],
        "platform": "Sentinel-1A",
        "bytes": 1042500701,
        "md5sum": "10c5cc57fb5035cfb8b8180e5e3bc81d",
        "frameNumber": 1201,
        "granuleType": "SENTINEL_1A_FRAME",
        "orbit": 54775,
        "polarization": "VV+VH",
        "processingDate": "2024-07-15T17:53:57Z",
        "sensor": "C-SAR",
        "groupID": "S1A_IWDV_0015_0022_054775_103",
        "pgeVersion": "003.80",
        "fileName": "S1A_IW_GRDH_1SDV_20240715T175357_20240715T175422_054775_06AB70_96EB.zip",
        "beamModeType": "IW",
        "s3Urls": [
          "s3://asf-ngap2w-p-s1-grd-7d1b4348/S1A_IW_GRDH_1SDV_20240715T175357_20240715T175422_054775_06AB70_96EB.zip"
        ]
      }
    },
    {
      "type": "Feature",
      "geometry": {
        "coordinates": [
          [
            [
              5.017405,
              4.960706
            ],
            [
              5.378243,
              6.715946
            ],
            [
              3.14498,
              7.172138
            ],
            [
              2.792304,
              5.421709
            ],
            [
              5.017405,
              4.960706
            ]
          ]
        ],
        "type": "Polygon"
      },
      "properties": {
        "centerLat": 6.0687,
        "centerLon": 4.0841,
        "stopTime": "2024-07-15T05:30:46Z",
        "fileID": "S1A_IW_GRDH_1SDV_20240715T053017_20240715T053046_054767_06AB2E_4470-GRD_HD",
        "flightDirection": "DESCENDING",
        "pathNumber": 95,
        "processingLevel": "GRD_HD",
        "url": "https://datapool.asf.alaska.edu/GRD_HD/SA/S1A_IW_GRDH_1SDV_20240715T053017_20240715T053046_054767_06AB2E_4470.zip",
        "startTime": "2024-07-15T05:30:17Z",
        "sceneName": "S1A_IW_GRDH_1SDV_20240715T053017_20240715T053046_054767_06AB2E_4470",
        "browse": [
          "https://datapool.asf.alaska.edu/BROWSE/SA/S1A_IW_GRDH_1SDV_20240715T053017_20240715T053046_054767_06AB2E_4470.jpg"
        ],
        "platform": "Sentinel-1A",
        "bytes": 1003203821,
        "md5sum": "e07f5ddd4a983c78c7aec9ee49091cfe",
        "frameNumber": 571,
        "granuleType": "SENTINEL_1A_FRAME",
        "orbit": 54767,
        "polarization": "VV+VH",
        "processingDate": "2024-07-15T05:30:17Z",
        "sensor": "C-SAR",
        "groupID": "S1A_IWDV_0571_0578_054767_095",
        "pgeVersion": "003.80",
        "fileName": "S1A_IW_GRDH_1SDV_20240715T053017_20240715T053046_054767_06AB2E_4470.zip",
        "beamModeType": "IW",
        "s3Urls": [
          "s3://asf-ngap2w-p-s1-grd-7d1b4348/S1A_IW_GRDH_1SDV_20240715T053017_20240715T053046_054767_06AB2E_4470.zip"
        ]
      }
    },
    {
      "type": "Feature",
      "geometry": {
        "coordinates": [
          [
            [
              4.103286,
              7.142242
            ],
            [
              4.411756,
              5.629313
            ],
            [
              6.652561,
              6.091135
            ],
            [
              6.351708,
              7.599905
            ],
            [
              4.103286,
              7.142242
            ]
          ]
        ],
        "type": "Polygon"
      },
      "properties": {
        "centerLat": 6.6168,
        "centerLon": 5.3789,
        "stopTime": "2024-07-03T17:54:22Z",
        "fileID": "S1A_IW_GRDH_1SDV_20240703T175357_20240703T175422_054600_06A561_3E0B-GRD_HD",
        "flightDirection": "ASCENDING",
        "pathNumber": 103,
        "processingLevel": "GRD_HD",
        "url": "https://datapool.asf.alaska.edu/GRD_HD/SA/S1A_IW_GRDH_1SDV_20240703T175357_20240703T175422_054600_06A561_3E0B.zip",
        "startTime": "2024-07-03T17:53:57Z",
        "sceneName": "S1A_IW_GRDH_1SDV_20240703T175357_20240703T175422_054600_06A561_3E0B",
        "browse": [
          "https://datapool.asf.alaska.edu/BROWSE/SA/S1A_IW_GRDH_1SDV_20240703T175357_20240703T175422_054600_06A561_3E0B.jpg"
        ],
        "platform": "Sentinel-1A",
        "bytes": 1044987481,
        "md5sum": "1001419671d0fa26ce7280a68a85fa90",
        "frameNumber": 1201,
        "granuleType": "SENTINEL_1A_FRAME",
        "orbit": 54600,
        "polarization": "VV+VH",
        "processingDate": "2024-07-03T17:53:57Z",
        "sensor": "C-SAR",
        "groupID": "S1A_IWDV_0015_0022_054600_103",
        "pgeVersion": "003.80",
        "fileName": "S1A_IW_GRDH_1SDV_20240703T175357_20240703T175422_054600_06A561_3E0B.zip",
        "beamModeType": "IW",
        "s3Urls": [
          "s3://asf-ngap2w-p-s1-grd-7d1b4348/S1A_IW_GRDH_1SDV_20240703T175357_20240703T175422_054600_06A561_3E0B.zip"
        ]
      }
    },
    {
      "type": "Feature",
      "geometry": {
        "coordinates": [
          [
            [
              5.019299,
              4.960677
            ],
            [
              5.380199,
              6.716371
            ],
            [
              3.146747,
              7.172555
            ],
            [
              2.794012,
              5.421674
            ],
            [
              5.019299,
              4.960677
            ]
          ]
        ],
        "type": "Polygon"
      },
      "properties": {
        "centerLat": 6.0689,
        "centerLon": 4.0859,
        "stopTime": "2024-07-03T05:30:46Z",
        "fileID": "S1A_IW_GRDH_1SDV_20240703T053017_20240703T053046_054592_06A521_9E4B-GRD_HD",
        "flightDirection": "DESCENDING",
        "pathNumber": 95,
        "processingLevel": "GRD_HD",
        "url": "https://datapool.asf.alaska.edu/GRD_HD/SA/S1A_IW_GRDH_1SDV_20240703T053017_20240703T053046_054592_06A521_9E4B.zip",
        "startTime": "2024-07-03T05:30:17Z",
        "sceneName": "S1A_IW_GRDH_1SDV_20240703T053017_20240703T053046_054592_06A521_9E4B",
        "browse": [
          "https://datapool.asf.alaska.edu/BROWSE/SA/S1A_IW_GRDH_1SDV_20240703T053017_20240703T053046_054592_06A521_9E4B.jpg"
        ],
        "platform": "Sentinel-1A",
        "bytes": 1000659269,
        "md5sum": "b5d95a102457d2364d49ec1bf152a646",
        "frameNumber": 571,
        "granuleType": "SENTINEL_1A_FRAME",
        "orbit": 54592,
        "polarization": "VV+VH",
        "processingDate": "2024-07-03T05:30:17Z",
        "sensor": "C-SAR",
        "groupID": "S1A_IWDV_0571_0578_054592_095",
        "pgeVersion": "003.80",
        "fileName": "S1A_IW_GRDH_1SDV_20240703T053017_20240703T053046_054592_06A521_9E4B.zip",
        "beamModeType": "IW",
        "s3Urls": [
          "s3://asf-ngap2w-p-s1-grd-7d1b4348/S1A_IW_GRDH_1SDV_20240703T053017_20240703T053046_054592_06A521_9E4B.zip"
        ]
      }
    },
    {
      "type": "Feature",
      "geometry": {
        "coordinates": [
          [
            [
              2.064829,
              7.039785
            ],
            [
              2.375622,
              5.527295
            ],
            [
              4.605695,
              5.987328
            ],
            [
              4.302413,
              7.495696
            ],
            [
              2.064829,
              7.039785
            ]
          ]
        ],
        "type": "Polygon"
      },
      "properties": {
        "centerLat": 6.5137,
        "centerLon": 3.3362,
        "stopTime": "2024-06-26T18:02:35Z",
        "fileID": "S1A_IW_GRDH_1SDV_20240626T180210_20240626T180235_054498_06A1D2_D181-GRD_HD",
        "flightDirection": "ASCENDING",
        "pathNumber": 1,
        "processingLevel": "GRD_HD",
        "url": "https://datapool.asf.alaska.edu/GRD_HD/SA/S1A_IW_GRDH_1SDV_20240626T180210_20240626T180235_054498_06A1D2_D181.zip",
        "startTime": "2024-06-26T18:02:10Z",
        "sceneName": "S1A_IW_GRDH_1SDV_20240626T180210_20240626T180235_054498_06A1D2_D181",
        "browse": [
          "https://datapool.asf.alaska.edu/BROWSE/SA/S1A_IW_GRDH_1SDV_20240626T180210_20240626T180235_054498_06A1D2_D181.jpg"
        ],
        "platform": "Sentinel-1A",
        "bytes": 942431693,
        "md5sum": "cb9921488d506608d987c41ec1ee3139",
        "frameNumber": 1200,
        "granuleType": "SENTINEL_1A_FRAME",
        "orbit": 54498,
        "polarization": "VV+VH",
        "processingDate": "2024-06-26T18:02:10Z",
        "sensor": "C-SAR",
        "groupID": "S1A_IWDV_0015_0021_054498_001",
        "pgeVersion": "003.80",
        "fileName": "S1A_IW_GRDH_1SDV_20240626T180210_20240626T180235_054498_06A1D2_D181.zip",
        "beamModeType": "IW",
        "s3Urls": [
          "s3://asf-ngap2w-p-s1-grd-7d1b4348/S1A_IW_GRDH_1SDV_20240626T180210_20240626T180235_054498_06A1D2_D181.zip"
        ]
      }
    },
    {
      "type": "Feature",
      "geometry": {
        "coordinates": [
          [
            [
              4.102726,
              7.142391
            ],
            [
              4.411175,
              5.629458
            ],
            [
              6.651807,
              6.091224
            ],
            [
              6.350976,
              7.599997
            ],
            [
              4.102726,
              7.142391
            ]
          ]
        ],
        "type": "Polygon"
      },
      "properties": {
        "centerLat": 6.6169,
        "centerLon": 5.3782,
        "stopTime": "2024-06-21T17:54:23Z",
        "fileID": "S1A_IW_GRDH_1SDV_20240621T175358_20240621T175423_054425_069F48_686B-GRD_HD",
        "flightDirection": "ASCENDING",
        "pathNumber": 103,
        "processingLevel": "GRD_HD",
        "url": "https://datapool.asf.alaska.edu/GRD_HD/SA/S1A_IW_GRDH_1SDV_20240621T175358_20240621T175423_054425_069F48_686B.zip",
        "startTime": "2024-06-21T17:53:58Z",
        "sceneName": "S1A_IW_GRDH_1SDV_20240621T175358_20240621T175423_054425_069F48_686B",
        "browse": [
          "https://datapool.asf.alaska.edu/BROWSE/SA/S1A_IW_GRDH_1SDV_20240621T175358_20240621T175423_054425_069F48_686B.jpg"
        ],
        "platform": "Sentinel-1A",
        "bytes": 1709850876,
        "md5sum": "afed9ddfcaedf7bfdb82871905c93e41",
        "frameNumber": 1201,
        "granuleType": "SENTINEL_1A_FRAME",
        "orbit": 54425,
        "polarization": "VV+VH",
        "processingDate": "2024-06-21T17:53:58Z",
        "sensor": "C-SAR",
        "groupID": "S1A_IWDV_0015_0022_054425_103",
        "pgeVersion": "003.80",
        "fileName": "S1A_IW_GRDH_1SDV_20240621T175358_20240621T175423_054425_069F48_686B.zip",
        "beamModeType": "IW",
        "s3Urls": [
          "s3://asf-ngap2w-p-s1-grd-7d1b4348/S1A_IW_GRDH_1SDV_20240621T175358_20240621T175423_054425_069F48_686B.zip"
        ]
      }
    },
    {
      "type": "Feature",
      "geometry": {
        "coordinates": [
          [
            [
              5.017828,
              4.960668
            ],
            [
              5.37863,
              6.716006
            ],
            [
              3.145087,
              7.17219
            ],
            [
              2.792449,
              5.421664
            ],
            [
              5.017828,
              4.960668
            ]
          ]
        ],
        "type": "Polygon"
      },
      "properties": {
        "centerLat": 6.0687,
        "centerLon": 4.0843,
        "stopTime": "2024-06-21T05:30:47Z",
        "fileID": "S1A_IW_GRDH_1SDV_20240621T053018_20240621T053047_054417_069F0A_10B1-GRD_HD",
        "flightDirection": "DESCENDING",
        "pathNumber": 95,
        "processingLevel": "GRD_HD",
        "url": "https://datapool.asf.alaska.edu/GRD_HD/SA/S1A_IW_GRDH_1SDV_20240621T053018_20240621T053047_054417_069F0A_10B1.zip",
        "startTime": "2024-06-21T05:30:18Z",
        "sceneName": "S1A_IW_GRDH_1SDV_20240621T053018_20240621T053047_054417_069F0A_10B1",
        "browse": [
          "https://datapool.asf.alaska.edu/BROWSE/SA/S1A_IW_GRDH_1SDV_20240621T053018_20240621T053047_054417_069F0A_10B1.jpg"
        ],
        "platform": "Sentinel-1A",
        "bytes": 1973790937,
        "md5sum": "79574677b598fbab4896c6894237e7df",
        "frameNumber": 571,
        "granuleType": "SENTINEL_1A_FRAME",
        "orbit": 54417,
        "polarization": "VV+VH",
        "processingDate": "2024-06-21T05:30:18Z",
        "sensor": "C-SAR",
        "groupID": "S1A_IWDV_0571_0578_054417_095",
        "pgeVersion": "003.80",
        "fileName": "S1A_IW_GRDH_1SDV_20240621T053018_20240621T053047_054417_069F0A_10B1.zip",
        "beamModeType": "IW",
        "s3Urls": [
          "s3://asf-ngap2w-p-s1-grd-7d1b4348/S1A_IW_GRDH_1SDV_20240621T053018_20240621T053047_054417_069F0A_10B1.zip"
        ]
      }
    }
  ]
}
